0 PEHUENSAT 1
1 29712U 07001D   13282.13800076  .00008075  00000-0  84927-3 0  3335
2 29712 097.6464 310.4002 0012747 147.1290 248.9568 14.89612961364994
0 PEHUENSAT 1
1 29712U 07001D   13283.14655459  .00008066  00000-0  84801-3 0  3342
2 29712 097.6465 311.3751 0012874 143.9265 257.3188 14.89624898365145
0 PEHUENSAT 1
1 29712U 07001D   13283.54194844  .00003841  00000-0  40194-3 0  3345
2 29712 097.6441 311.7542 0012601 142.2065 218.0538 14.89618604365207
0 PEHUENSAT 1
1 29712U 07001D   13284.29287294  .00008380  00000-0  88054-3 0  3351
2 29712 097.6468 312.4832 0013040 140.1167 284.6685 14.89636267365313
0 PEHUENSAT 1
1 29712U 07001D   13285.77960066  .00006980  00000-0  73416-3 0  3361
2 29712 097.6471 313.9209 0013138 135.4520 337.3248 14.89656056365532
0 PEHUENSAT 1
1 29712U 07001D   13286.78813378  .00007250  00000-0  76201-3 0  3373
2 29712 097.6470 314.8963 0013123 132.5681 345.4182 14.89669604365684
0 PEHUENSAT 1
1 29712U 07001D   13288.12395976  .00012192  00000-0  12759-2 0  3381
2 29712 097.6465 316.1882 0013051 128.7377 308.6563 14.89695535365880
0 PEHUENSAT 1
1 29712U 07001D   13289.12619501  .00009796  00000-0  10262-2 0  3399
2 29712 097.6459 317.1573 0013026 125.9400 283.0601 14.89712163366033
0 PEHUENSAT 1
1 29712U 07001D   13290.13295209  .00009783  00000-0  10245-2 0  3406
2 29712 097.6453 318.1307 0013076 123.1430 281.7553 14.89725590366186
0 PEHUENSAT 1
1 29712U 07001D   13291.13879597  .00008732  00000-0  91480-3 0  3410
2 29712 097.6448 319.1032 0013136 120.4044 275.5463 14.89741337366339
0 PEHUENSAT 1
1 29712U 07001D   13292.28548258  .00007843  00000-0  82205-3 0  3422
2 29712 097.6445 320.2117 0013203 117.0277 304.9149 14.89754233366504
0 PEHUENSAT 1
1 29712U 07001D   13293.29266388  .00008950  00000-0  93677-3 0  3431
2 29712 097.6444 321.1852 0013337 113.8844 306.3853 14.89767592366657
0 PEHUENSAT 1
1 29712U 07001D   13294.52021031  .00010125  00000-0  10585-2 0  3446
2 29712 097.6446 322.3719 0013397 110.1908 049.5876 14.89783556366830
0 PEHUENSAT 1
1 29712U 07001D   13295.72464525  .00009531  00000-0  99635-3 0  3452
2 29712 097.6449 323.5364 0013355 106.6130 028.8713 14.89803259367017
